{
    "links": {
        "self": "http://www.neowsapp.com/rest/v1/neo/3666472?api_key=iIulBulltgU6a56xZRHN4H3l9WmuAYTsLGpBGhQ2"
    },
    "id": "3666472",
    "neo_reference_id": "3666472",
    "name": "(2014 FF7)",
    "designation": "2014 FF7",
    "nasa_jpl_url": "http://ssd.jpl.nasa.gov/sbdb.cgi?sstr=3666472",
    "absolute_magnitude_h": 24.7,
    "estimated_diameter": {
        "kilometers": {
            "estimated_diameter_min": 0.0305179233,
            "estimated_diameter_max": 0.0682401509
        },
        "meters": {
            "estimated_diameter_min": 30.5179232594,
            "estimated_diameter_max": 68.2401509401
        },
        "miles": {
            "estimated_diameter_min": 0.0189629525,
            "estimated_diameter_max": 0.0424024508
        },
        "feet": {
            "estimated_diameter_min": 100.1244233463,
            "estimated_diameter_max": 223.8850168104
        }
    },
    "is_potentially_hazardous_asteroid": false,
    "close_approach_data": [
        {
            "close_approach_date": "2014-03-29",
            "close_approach_date_full": "2014-Mar-29 00:49",
            "epoch_date_close_approach": 1396054140000,
            "relative_velocity": {
                "kilometers_per_second": "4.696756292",
                "kilometers_per_hour": "16908.3226513124",
                "miles_per_hour": "10506.1741496447"
            },
            "miss_distance": {
                "astronomical": "0.1153665966",
                "lunar": "44.8776060774",
                "kilometers": "17258597.120509242",
                "miles": "10723994.9724298596"
            },
            "orbiting_body": "Earth"
        }
    ],
    "orbital_data": {
        "orbit_id": "16",
        "orbit_determination_date": "2017-04-06 08:41:57",
        "first_observation_date": "2014-03-23",
        "last_observation_date": "2014-04-28",
        "data_arc_in_days": 36,
        "observations_used": 48,
        "orbit_uncertainty": "7",
        "minimum_orbit_intersection": ".113833",
        "jupiter_tisserand_invariant": "3.739",
        "epoch_osculation": "2459000.5",
        "eccentricity": ".4375743817112843",
        "semi_major_axis": "1.975543426535487",
        "inclination": "4.20192248226962",
        "ascending_node_longitude": "11.80317527084308",
        "orbital_period": "1014.210956920506",
        "perihelion_distance": "1.111096233125429",
        "perihelion_argument": "171.2496079222608",
        "aphelion_distance": "2.839990619945544",
        "perihelion_time": "2458769.759139693105",
        "mean_anomaly": "81.90279265242951",
        "mean_motion": ".3549557392804",
        "equinox": "J2000",
        "orbit_class": {
            "orbit_class_type": "AMO",
            "orbit_class_description": "Near-Earth asteroid orbits similar to that of 1221 Amor",
            "orbit_class_range": "1.017 AU < q (perihelion) < 1.3 AU"
        }
    },
    "is_sentry_object": false
}